CCSDS_OMM_VERS,COMMENT,CREATION_DATE,ORIGINATOR,OBJECT_NAME,OBJECT_ID,CENTER_NAME,REF_FRAME,TIME_SYSTEM,MEAN_ELEMENT_THEORY,EPOCH,MEAN_MOTION,ECCENTRICITY,INCLINATION,RA_OF_ASC_NODE,ARG_OF_PERICENTER,MEAN_ANOMALY,EPHEMERIS_TYPE,CLASSIFICATION_TYPE,NORAD_CAT_ID,ELEMENT_SET_NO,REV_AT_EPOCH,BSTAR,MEAN_MOTION_DOT,MEAN_MOTION_DDOT,SEMIMAJOR_AXIS,PERIOD,APOAPSIS,PERIAPSIS,OBJECT_TYPE,RCS_SIZE,COUNTRY_CODE,LAUNCH_DATE,SITE,DECAY_DATE,FILE,GP_ID,TLE_LINE0,TLE_LINE1,TLE_LINE2
2,GENERATED VIA SPACE-TRACK.ORG API,2013-05-29T08:42:04,18 SPCS,GALILEO-FM3,2012-055A,EARTH,TEME,UTC,SGP4,2013-05-29T07:18:00.819359,1.70473615,0.0003705,55.2291,233.1783,227.8927,132.1386,0,U,38857,999,390,0.0,-1.6e-07,0,29600.383,844.705,23233.215,23211.281,PAYLOAD,LARGE,ESA,2012-10-12,FRGUI,,1492612,92976735,0 GALILEO-FM3,1 38857U 12055A   13149.30417615 -.00000016  00000-0  00000+0 0  9996,2 38857 055.2291 233.1783 0003705 227.8927 132.1386 01.70473615  3906
2,GENERATED VIA SPACE-TRACK.ORG API,2013-06-01T00:32:58,18 SPCS,GALILEO-FM3,2012-055A,EARTH,TEME,UTC,SGP4,2013-05-31T15:36:43.438463,1.70473672,0.0003785,55.2282,233.1131,228.9793,131.042,0,U,38857,999,394,0.0,-2.8e-07,0,29600.376,844.705,23233.445,23211.038,PAYLOAD,LARGE,ESA,2012-10-12,FRGUI,,1493891,92998157,0 GALILEO-FM3,1 38857U 12055A   13151.65050276 -.00000028  00000-0  00000+0 0  9996,2 38857 055.2282 233.1131 0003785 228.9793 131.0420 01.70473672  3948
2,GENERATED VIA SPACE-TRACK.ORG API,2013-06-03T00:31:06,18 SPCS,GALILEO-FM3,2012-055A,EARTH,TEME,UTC,SGP4,2013-06-02T23:55:27.129792,1.70473673,0.0003835,55.2273,233.0479,230.1347,129.886,0,U,38857,999,398,0.0,-2.3e-07,0,29600.376,844.705,23233.593,23210.89,PAYLOAD,LARGE,ESA,2012-10-12,FRGUI,,1494810,93013967,0 GALILEO-FM3,1 38857U 12055A   13153.99684178 -.00000023  00000-0  00000+0 0  9994,2 38857 055.2273 233.0479 0003835 230.1347 129.8860 01.70473673  3986
2,GENERATED VIA SPACE-TRACK.ORG API,2013-06-05T08:28:33,18 SPCS,GALILEO-FM3,2012-055A,EARTH,TEME,UTC,SGP4,2013-06-05T08:14:12.320160,1.70473628,0.000388,55.2264,232.9827,231.2084,128.8236,0,U,38857,999,402,0.0,-7e-08,0,29600.382,844.705,23233.731,23210.762,PAYLOAD,LARGE,ESA,2012-10-12,FRGUI,,1495794,93031427,0 GALILEO-FM3,1 38857U 12055A   13156.34319815 -.00000007  00000-0  00000+0 0  9991,2 38857 055.2264 232.9827 0003880 231.2084 128.8236 01.70473628  4023
2,GENERATED VIA SPACE-TRACK.ORG API,2013-06-08T08:30:53,18 SPCS,GALILEO-FM3,2012-055A,EARTH,TEME,UTC,SGP4,2013-06-08T06:37:39.110304,1.70473506,0.0003941,55.2253,232.9011,232.693,127.3563,0,U,38857,999,407,0.0,9e-08,0,29600.396,844.706,23233.926,23210.595,PAYLOAD,LARGE,ESA,2012-10-12,FRGUI,,1497158,93055664,0 GALILEO-FM3,1 38857U 12055A   13159.27614711  .00000009  00000-0  00000+0 0  9990,2 38857 055.2253 232.9011 0003941 232.6930 127.3563 01.70473506  4076
2,GENERATED VIA SPACE-TRACK.ORG API,2013-06-11T00:28:23,18 SPCS,GALILEO-FM3,2012-055A,EARTH,TEME,UTC,SGP4,2013-06-10T14:56:23.555040,1.70473421,0.0003987,55.2242,232.8357,233.6969,126.3584,0,U,38857,999,411,0.0,1.7e-07,0,29600.406,844.706,23234.072,23210.469,PAYLOAD,LARGE,ESA,2012-10-12,FRGUI,,1498743,93076960,0 GALILEO-FM3,1 38857U 12055A   13161.62249485  .00000017  00000-0  00000+0 0  9993,2 38857 055.2242 232.8357 0003987 233.6969 126.3584 01.70473421  4112
2,GENERATED VIA SPACE-TRACK.ORG API,2013-06-13T16:27:33,18 SPCS,GALILEO-FM3,2012-055A,EARTH,TEME,UTC,SGP4,2013-06-13T13:19:47.577791,1.70473357,0.0004045,55.2229,232.7537,234.3434,125.707,0,U,38857,999,416,0.0,2.3e-07,0,29600.413,844.706,23234.251,23210.305,PAYLOAD,LARGE,ESA,2012-10-12,FRGUI,,1500351,93098628,0 GALILEO-FM3,1 38857U 12055A   13164.55541178  .00000023  00000-0  00000+0 0  9999,2 38857 055.2229 232.7537 0004045 234.3434 125.7070 01.70473357  4163
2,GENERATED VIA SPACE-TRACK.ORG API,2013-06-16T16:31:20,18 SPCS,GALILEO-FM3,2012-055A,EARTH,TEME,UTC,SGP4,2013-06-16T11:43:11.515008,1.70473337,0.000414,55.2216,232.6715,234.5162,125.5269,0,U,38857,999,421,0.0,2.6e-07,0,29600.415,844.706,23234.535,23210.026,PAYLOAD,LARGE,ESA,2012-10-12,FRGUI,,1501821,93123934,0 GALILEO-FM3,1 38857U 12055A   13167.48832772  .00000026  00000-0  00000+0 0  9990,2 38857 055.2216 232.6715 0004140 234.5162 125.5269 01.70473337  4214
2,GENERATED VIA SPACE-TRACK.ORG API,2013-06-19T10:10:29,18 SPCS,GALILEO-FM3,2012-055A,EARTH,TEME,UTC,SGP4,2013-06-19T10:06:38.421791,1.70476246,0.0004211,55.2205,232.5891,236.9761,123.0777,0,U,38857,999,426,0.0001,5e-08,0,29600.078,844.692,23234.408,23209.479,PAYLOAD,LARGE,ESA,2012-10-12,FRGUI,,1503041,93141719,0 GALILEO-FM3,1 38857U 12055A   13170.42127803  .00000005  00000-0  10000-3 0  9992,2 38857 055.2205 232.5891 0004211 236.9761 123.0777 01.70476246  4260
2,GENERATED VIA SPACE-TRACK.ORG API,2013-06-21T07:43:39,18 SPCS,GALILEO-FM3,2012-055A,EARTH,TEME,UTC,SGP4,2013-06-20T00:11:19.161888,1.70473429,0.0004217,55.2201,232.573,234.3125,125.7398,0,U,38857,999,427,0.0,3.8e-07,0,29600.405,844.706,23234.752,23209.787,PAYLOAD,LARGE,ESA,2012-10-12,FRGUI,,1503608,93149062,0 GALILEO-FM3,1 38857U 12055A   13171.00786067  .00000038  00000-0  00000+0 0  9991,2 38857 055.2201 232.5730 0004217 234.3125 125.7398 01.70473429  4279
2,GENERATED VIA SPACE-TRACK.ORG API,2013-06-22T16:24:50,18 SPCS,GALILEO-FM3,2012-055A,EARTH,TEME,UTC,SGP4,2013-06-22T08:30:04.811039,1.70473546,0.0004266,55.2191,232.5075,234.0881,125.9734,0,U,38857,999,431,0.0,4.1e-07,0,29600.391,844.705,23234.884,23209.629,PAYLOAD,LARGE,ESA,2012-10-12,FRGUI,,1504464,93163622,0 GALILEO-FM3,1 38857U 12055A   13173.35422235  .00000041  00000-0  00000+0 0  9999,2 38857 055.2191 232.5075 0004266 234.0881 125.9734 01.70473546  4310
2,GENERATED VIA SPACE-TRACK.ORG API,2013-06-24T16:28:11,18 SPCS,GALILEO-FM3,2012-055A,EARTH,TEME,UTC,SGP4,2013-06-24T16:48:48.467807,1.70473634,0.0004314,55.2182,232.442,234.1392,125.919,0,U,38857,999,435,0.0,3e-07,0,29600.381,844.705,23235.015,23209.476,PAYLOAD,LARGE,ESA,2012-10-12,FRGUI,,1505324,93175264,0 GALILEO-FM3,1 38857U 12055A   13175.70056097  .00000030  00000-0  00000+0 0  9997,2 38857 055.2182 232.4420 0004314 234.1392 125.9190 01.70473634  4353
2,GENERATED VIA SPACE-TRACK.ORG API,2013-06-27T00:36:05,18 SPCS,GALILEO-FM3,2012-055A,EARTH,TEME,UTC,SGP4,2013-06-27T01:07:30.483840,1.70473711,0.0004372,55.2175,232.3766,234.6815,125.3626,0,U,38857,999,439,0.0,1.3e-07,0,29600.372,844.705,23235.178,23209.296,PAYLOAD,LARGE,ESA,2012-10-12,FRGUI,,1506159,93188743,0 GALILEO-FM3,1 38857U 12055A   13178.04688060  .00000013  00000-0  00000+0 0  9999,2 38857 055.2175 232.3766 0004372 234.6815 125.3626 01.70473711  4394
2,GENERATED VIA SPACE-TRACK.ORG API,2013-06-29T16:42:47,18 SPCS,GALILEO-FM3,2012-055A,EARTH,TEME,UTC,SGP4,2013-06-29T09:26:12.876576,1.70473741,0.0004405,55.2169,232.3113,235.6844,124.3498,0,U,38857,999,443,0.0,1e-07,0,29600.368,844.704,23235.272,23209.194,PAYLOAD,LARGE,ESA,2012-10-12,FRGUI,,1507473,93210092,0 GALILEO-FM3,1 38857U 12055A   13180.39320459  .00000010  00000-0  00000+0 0  9992,2 38857 055.2169 232.3113 0004405 235.6844 124.3498 01.70473741  4437
2,GENERATED VIA SPACE-TRACK.ORG API,2013-07-02T16:36:34,18 SPCS,GALILEO-FM3,2012-055A,EARTH,TEME,UTC,SGP4,2013-07-02T07:49:38.049312,1.70473687,0.0004423,55.2161,232.2298,236.9465,123.0929,0,U,38857,999,448,0.0,2.7e-07,0,29600.375,844.705,23235.332,23209.147,PAYLOAD,LARGE,ESA,2012-10-12,FRGUI,,1510011,93235064,0 GALILEO-FM3,1 38857U 12055A   13183.32613483  .00000027  00000-0  00000+0 0  9998,2 38857 055.2161 232.2298 0004423 236.9465 123.0929 01.70473687  4484
2,GENERATED VIA SPACE-TRACK.ORG API,2013-07-06T19:04:07,18 SPCS,GALILEO-FM3,2012-055A,EARTH,TEME,UTC,SGP4,2013-07-05T20:17:45.518207,1.7047348,0.0004322,55.2134,232.13,237.803,122.2423,0,U,38857,999,454,0.0,4.6e-07,0,29600.399,844.706,23235.057,23209.47,PAYLOAD,LARGE,ESA,2012-10-12,FRGUI,,1512031,93267832,0 GALILEO-FM3,1 38857U 12055A   13186.84566572  .00000046  00000-0  00000+0 0  9995,2 38857 055.2134 232.1300 0004322 237.8030 122.2423 01.70473480  4541
2,GENERATED VIA SPACE-TRACK.ORG API,2013-07-08T21:01:13,18 SPCS,GALILEO-FM3,2012-055A,EARTH,TEME,UTC,SGP4,2013-07-08T18:41:11.638751,1.70474351,0.0004294,55.2132,232.0496,241.7693,118.2932,0,U,38857,999,459,0.0,5.3e-07,0,29600.298,844.701,23234.873,23209.452,PAYLOAD,LARGE,ESA,2012-10-12,FRGUI,,1513096,93283208,0 GALILEO-FM3,1 38857U 12055A   13189.77860693  .00000053  00000-0  00000+0 0  9999,2 38857 055.2132 232.0496 0004294 241.7693 118.2932 01.70474351  4594
2,GENERATED VIA SPACE-TRACK.ORG API,2013-07-12T22:38:50,18 SPCS,GALILEO-FM3,2012-055A,EARTH,TEME,UTC,SGP4,2013-07-12T07:09:12.408191,1.70473726,0.0004505,55.2111,231.9493,239.3146,120.7153,0,U,38857,999,465,0.0001,5.6e-07,0,29600.37,844.704,23235.57,23208.9,PAYLOAD,LARGE,ESA,2012-10-12,FRGUI,,1515118,93313763,0 GALILEO-FM3,1 38857U 12055A   13193.29806028  .00000056  00000-0  10000-3 0  9991,2 38857 055.2111 231.9493 0004505 239.3146 120.7153 01.70473726  4652
2,GENERATED VIA SPACE-TRACK.ORG API,2013-07-15T20:28:35,18 SPCS,GALILEO-FM3,2012-055A,EARTH,TEME,UTC,SGP4,2013-07-15T19:37:17.857920,1.7047374,0.0004495,55.2098,231.8513,239.3097,120.7206,0,U,38857,999,471,0.0001,6.2e-07,0,29600.369,844.704,23235.539,23208.928,PAYLOAD,LARGE,ESA,2012-10-12,FRGUI,,1516631,93336817,0 GALILEO-FM3,1 38857U 12055A   13196.81756780  .00000062  00000-0  10000-3 0  9998,2 38857 055.2098 231.8513 0004495 239.3097 120.7206 01.70473740  4713
2,GENERATED VIA SPACE-TRACK.ORG API,2013-07-18T16:53:08,18 SPCS,GALILEO-FM3,2012-055A,EARTH,TEME,UTC,SGP4,2013-07-18T18:00:44.388863,1.70473522,0.0004559,55.2101,231.7709,238.7885,121.2485,0,U,38857,999,476,0.0,7e-07,0,29600.394,844.705,23235.754,23208.764,PAYLOAD,LARGE,ESA,2012-10-12,FRGUI,,1518179,93358286,0 GALILEO-FM3,1 38857U 12055A   13199.75051376  .00000070  00000-0  00000+0 0  9997,2 38857 055.2101 231.7709 0004559 238.7885 121.2485 01.70473522  4761
